0 BEIDOU IGSO 5
1 37948U 11073A   13281.73686771 -.00000166  00000-0  10000-3 0  4930
2 37948 054.6776 326.2385 0026070 196.4442 215.6759 01.00277772  6938
0 BEIDOU IGSO 5
1 37948U 11073A   13282.58972925  .00000000  00000-0  10000-3 0  4962
2 37948 054.6750 326.2258 0025887 198.0272 161.9662 01.00274747  6949
0 BEIDOU IGSO 5
1 37948U 11073A   13282.87745310 -.00000170  00000-0  10000-3 0  4947
2 37948 054.6766 326.2254 0026072 196.5184 267.3550 01.00277536  6940
0 BEIDOU IGSO 5
1 37948U 11073A   13283.89180858 -.00000173  00000-0  10000-3 0  4954
2 37948 054.6758 326.2137 0026072 196.5165 273.5401 01.00277324  6950
0 BEIDOU IGSO 5
1 37948U 11073A   13286.44326191 -.00000173  00000-0  10000-3 0  4972
2 37948 054.6732 326.1842 0025991 197.3680 113.7587 01.00276742  6979
0 BEIDOU IGSO 5
1 37948U 11073A   13287.45573318 -.00000171  00000-0  10000-3 0  4988
2 37948 054.6723 326.1725 0025986 197.5161 119.1085 01.00276470  6981
0 BEIDOU IGSO 5
1 37948U 11073A   13289.48247123 -.00000169  00000-0  10000-3 0  4993
2 37948 054.6711 326.1492 0025970 197.2739 131.0000 01.00276135  7002
0 BEIDOU IGSO 5
1 37948U 11073A   13289.57034439  .00000000  00000-0  10000-3 0  5003
2 37948 054.6709 326.1481 0026016 197.5249 162.4660 01.00273538  7013
0 BEIDOU IGSO 5
1 37948U 11073A   13290.76008142 -.00000168  00000-0  10000-3 0  5004
2 37948 054.6700 326.1346 0025982 197.3017 232.1814 01.00275821  7020
0 BEIDOU IGSO 5
1 37948U 11073A   13291.87036926 -.00000169  00000-0  10000-3 0  5010
2 37948 054.6690 326.1219 0025964 197.4579 272.8306 01.00275542  7039
0 BEIDOU IGSO 5
1 37948U 11073A   13292.88187670 -.00000169  00000-0  10000-3 0  5026
2 37948 054.6681 326.1103 0025960 197.4789 277.9563 01.00275305  7049
0 BEIDOU IGSO 5
1 37948U 11073A   13293.01787115 -.00000169  00000-0  10000-3 0  5033
2 37948 054.6679 326.1084 0025906 197.9180 326.5996 01.00274981  7044
0 BEIDOU IGSO 5
1 37948U 11073A   13294.48596679 -.00000170  00000-0  10000-3 0  5041
2 37948 054.6668 326.0916 0025911 198.0012 136.4882 01.00274697  7054
0 BEIDOU IGSO 5
1 37948U 11073A   13295.71875059 -.00000169  00000-0  10000-3 0  5059
2 37948 054.6657 326.0776 0025916 198.0393 221.4747 01.00274455  7072
